{
    "links": {
        "self": "http://www.neowsapp.com/rest/v1/neo/3989346?api_key=iIulBulltgU6a56xZRHN4H3l9WmuAYTsLGpBGhQ2"
    },
    "id": "3989346",
    "neo_reference_id": "3989346",
    "name": "(2020 BB15)",
    "designation": "2020 BB15",
    "nasa_jpl_url": "http://ssd.jpl.nasa.gov/sbdb.cgi?sstr=3989346",
    "absolute_magnitude_h": 21.767,
    "estimated_diameter": {
        "kilometers": {
            "estimated_diameter_min": 0.1178026273,
            "estimated_diameter_max": 0.2634146827
        },
        "meters": {
            "estimated_diameter_min": 117.802627346,
            "estimated_diameter_max": 263.4146826737
        },
        "miles": {
            "estimated_diameter_min": 0.0731991364,
            "estimated_diameter_max": 0.1636782448
        },
        "feet": {
            "estimated_diameter_min": 386.4915719018,
            "estimated_diameter_max": 864.2214275031
        }
    },
    "is_potentially_hazardous_asteroid": true,
    "close_approach_data": [
        {
            "close_approach_date": "2020-02-21",
            "close_approach_date_full": "2020-Feb-21 19:57",
            "epoch_date_close_approach": 1582315020000,
            "relative_velocity": {
                "kilometers_per_second": "13.4004034354",
                "kilometers_per_hour": "48241.4523675923",
                "miles_per_hour": "29975.3624447409"
            },
            "miss_distance": {
                "astronomical": "0.2496658084",
                "lunar": "97.1199994676",
                "kilometers": "37349473.148468108",
                "miles": "23207886.4504635704"
            },
            "orbiting_body": "Earth"
        },
        {
            "close_approach_date": "2148-05-29",
            "close_approach_date_full": "2148-May-29 22:38",
            "epoch_date_close_approach": 5630078280000,
            "relative_velocity": {
                "kilometers_per_second": "15.1870175474",
                "kilometers_per_hour": "54673.2631705601",
                "miles_per_hour": "33971.8395517294"
            },
            "miss_distance": {
                "astronomical": "0.3091915638",
                "lunar": "120.2755183182",
                "kilometers": "46254399.366449106",
                "miles": "28741151.0214294228"
            },
            "orbiting_body": "Earth"
        },
        {
            "close_approach_date": "2157-05-27",
            "close_approach_date_full": "2157-May-27 11:44",
            "epoch_date_close_approach": 5913863040000,
            "relative_velocity": {
                "kilometers_per_second": "14.0325016469",
                "kilometers_per_hour": "50517.005928975",
                "miles_per_hour": "31389.3029340345"
            },
            "miss_distance": {
                "astronomical": "0.2723342842",
                "lunar": "105.9380365538",
                "kilometers": "40740628.844294654",
                "miles": "25315052.8892440652"
            },
            "orbiting_body": "Earth"
        },
        {
            "close_approach_date": "2166-05-27",
            "close_approach_date_full": "2166-May-27 05:53",
            "epoch_date_close_approach": 6197838780000,
            "relative_velocity": {
                "kilometers_per_second": "13.7290938602",
                "kilometers_per_hour": "49424.7378966638",
                "miles_per_hour": "30710.6100558465"
            },
            "miss_distance": {
                "astronomical": "0.2616441407",
                "lunar": "101.7795707323",
                "kilometers": "39141406.146700309",
                "miles": "24321341.9839459042"
            },
            "orbiting_body": "Earth"
        }
    ],
    "orbital_data": {
        "orbit_id": "4",
        "orbit_determination_date": "2020-03-05 05:05:01",
        "first_observation_date": "2020-01-30",
        "last_observation_date": "2020-03-04",
        "data_arc_in_days": 34,
        "observations_used": 28,
        "orbit_uncertainty": "7",
        "minimum_orbit_intersection": ".00540405",
        "jupiter_tisserand_invariant": "4.072",
        "epoch_osculation": "2459000.5",
        "eccentricity": ".4141075653754374",
        "semi_major_axis": "1.717158969180349",
        "inclination": "5.310316488661972",
        "ascending_node_longitude": "16.21683090635679",
        "orbital_period": "821.8909168001045",
        "perihelion_distance": "1.006070449090479",
        "perihelion_argument": "177.67597115",
        "aphelion_distance": "2.428247489270219",
        "perihelion_time": "2458926.084391585930",
        "mean_anomaly": "32.59510292845921",
        "mean_motion": ".4380143309061014",
        "equinox": "J2000",
        "orbit_class": {
            "orbit_class_type": "APO",
            "orbit_class_description": "Near-Earth asteroid orbits which cross the Earth’s orbit similar to that of 1862 Apollo",
            "orbit_class_range": "a (semi-major axis) > 1.0 AU; q (perihelion) < 1.017 AU"
        }
    },
    "is_sentry_object": false
}